{"fetched_at":"2026-03-29T16:36:15Z","count":15609,"tles":[{"name":"STARLINK-11244 [DTC]","line1":"1 60926U 24155C   26087.74146859 -.00000933  00000+0 -28488-5 0  9998","line2":"2 60926  53.1597 247.4128 0001076  69.4945 290.6189 15.69699734 91446","category":"Starlink"}]}